[{"OBJECT_NAME":"STARLINK-5933","OBJECT_ID":"2023-037AZ","EPOCH":"2026-03-09T22:41:03.525216","MEAN_MOTION":14.98330477,"ECCENTRICITY":0.00027263,"INCLINATION":69.998,"RA_OF_ASC_NODE":263.7225,"ARG_OF_PERICENTER":270.5332,"MEAN_ANOMALY":89.5515,"EPHEMERIS_TYPE":0,"CLASSIFICATION_TYPE":"U","NORAD_CAT_ID":55961,"ELEMENT_SET_NO":999,"REV_AT_EPOCH":16451,"BSTAR":1.9695852e-5,"MEAN_MOTION_DOT":1.42e-6,"MEAN_MOTION_DDOT":0},{"OBJECT_NAME":"PEGASUS DEB","OBJECT_ID":"1994-029LN","EPOCH":"2026-03-09T13:32:28.639104","MEAN_MOTION":14.7969053,"ECCENTRICITY":0.014325,"INCLINATION":81.5077,"RA_OF_ASC_NODE":265.5669,"ARG_OF_PERICENTER":165.8227,"MEAN_ANOMALY":194.7072,"EPHEMERIS_TYPE":0,"CLASSIFICATION_TYPE":"U","NORAD_CAT_ID":24239,"ELEMENT_SET_NO":999,"REV_AT_EPOCH":56152,"BSTAR":0.0015079,"MEAN_MOTION_DOT":0.00013522,"MEAN_MOTION_DDOT":0}]
